STARLINK-31624          
1 59532U 24073X   25193.76298990  .00067237  00000+0  11156-2 0  9990
2 59532  43.0009 210.2270 0007525 103.7275 256.4423 15.51210570 70954
STARLINK-31509          
1 59533U 24073Y   25193.47613756  .00000787  00000+0  38098-4 0  9993
2 59533  42.9996 235.0078 0001274 273.7979  86.2727 15.27582322 69430
STARLINK-31734          
1 59534U 24074A   25193.87428066  .00001382  00000+0  59752-4 0  9999
2 59534  43.0018 246.9833 0001405 273.6615  86.4076 15.27573102 69468
STARLINK-31738          
1 59535U 24074B   25193.89128140  .00001516  00000+0  64589-4 0  9995
2 59535  43.0032 253.9491 0001523 267.5018  92.5659 15.27587995 69384
STARLINK-31721          
1 59536U 24074C   25193.89339092  .00000109  00000+0  13460-4 0  9995
2 59536  43.0016 257.5058 0000521 278.5897  81.4895 15.27578345 69344
STARLINK-31737          
1 59537U 24074D   25193.90752239  .00000267  00000+0  19222-4 0  9997
2 59537  43.0034 257.6145 0001557 271.3931  88.6743 15.27581131 69341
STARLINK-31725          
1 59538U 24074E   25193.52045735  .00001305  00000+0  56926-4 0  9998
2 59538  43.0001 249.2019 0001388 281.5747  78.4949 15.27584616 70576
STARLINK-31539          
1 59539U 24074F   25193.46137796  .00001034  00000+0  47077-4 0  9997
2 59539  43.0023 260.2861 0001708 275.1758  84.8899 15.27588989 70354
STARLINK-31397          
1 59540U 24074G   25193.86783349  .00001385  00000+0  59851-4 0  9996
2 59540  42.9986 258.1727 0001652 266.6730  93.3932 15.27584647 69338
STARLINK-31481          
1 59541U 24074H   25193.87925754  .00001352  00000+0  58654-4 0  9990
2 59541  43.0013 257.3983 0000971 273.9327  86.1414 15.27570912 69349
STARLINK-31540          
1 59542U 24074J   25193.63569537  .00000666  00000+0  33739-4 0  9992
2 59542  43.0041 259.0121 0001645 272.4162  87.6501 15.27583410 69300
STARLINK-31574          
1 59543U 24074K   25193.59600036 -.00003624  00000+0 -12213-3 0  9990
2 59543  43.0005 259.5703 0000742 179.7420 180.3432 15.27613843 69291
STARLINK-31556          
1 59544U 24074L   25193.53319728 -.00000433  00000+0 -62203-5 0  9991
2 59544  42.9998 259.9629 0001526 136.0928 224.0045 15.27582603 69286
STARLINK-31582          
1 59545U 24074M   25193.87169341  .00000497  00000+0  27577-4 0  9995
2 59545  43.0008 258.1985 0000759 281.9777  78.0990 15.27577801 69332
STARLINK-31519          
1 59546U 24074N   25193.88568380  .00000226  00000+0  17728-4 0  9990
2 59546  42.9976 257.4462 0000535   3.6611 356.4245 15.27576364 69345
STARLINK-31736          
1 59547U 24074P   25193.58412187  .00000488  00000+0  27262-4 0  9995
2 59547  42.9988 252.5538 0001232 267.7045  92.3665 15.27583715 69371
STARLINK-31675          
1 59548U 24074Q   25193.63955110  .00000879  00000+0  41467-4 0  9997
2 59548  43.0036 259.0376 0001231 273.3885  86.6826 15.27583978 69303
STARLINK-31722          
1 59549U 24074R   25193.88191219  .00018928  00000+0  69965-3 0  9993
2 59549  42.9978 257.4184 0005118 124.2443 235.8894 15.27379761 70463
STARLINK-31741          
1 59550U 24074S   25193.88953153  .00000202  00000+0  16872-4 0  9994
2 59550  43.0026 257.4754 0001121 283.3705  76.7022 15.27585138 69349
STARLINK-31699          
1 59551U 24074T   25193.90366157  .00000714  00000+0  35469-4 0  9991
2 59551  43.0030 257.5760 0001604 268.1446  91.9222 15.27584097 69346
STARLINK-31750          
1 59552U 24074U   25193.58832037  .00017143  00000+0  63226-3 0  9996
2 59552  43.0008 259.5182 0003259 142.6790 217.4289 15.27514225 70524
STARLINK-31723          
1 59553U 24074V   25193.58443381  .00000676  00000+0  34083-4 0  9990
2 59553  43.0017 259.4869 0001324 255.6582 104.4123 15.27595101 70468
STARLINK-31724          
1 59554U 24074W   25193.45569800  .00001879  00000+0  77789-4 0  9998
2 59554  42.9995 224.1971 0001460 290.7774  69.2921 15.27574402 69686
STARLINK-31730          
1 59555U 24074X   25193.87556225  .00009233  00000+0  34519-3 0  9997
2 59555  42.9986 258.2278 0002336 128.6177 231.4884 15.27526942 69333
STARLINK-31718          
1 59556U 24074Y   25193.66781363  .00001744  00000+0  72874-4 0  9994
2 59556  42.9996 259.2474 0000579 184.8920 175.1926 15.27584762 69303
YAOGAN-42 02            
1 59557U 24075A   25193.61819600  .00006217  75990-8  25703-3 0  9994
2 59557  34.9979 245.1266 0005874 331.4978  28.5415 15.23007775 68285
STARLINK-31747          
1 59564U 24076A   25193.90849521 -.00055088  00000+0 -19882-2 0  9993
2 59564  43.0002 272.5737 0001640 275.8587  84.2078 15.27890434 69946
STARLINK-31388          
1 59565U 24076B   25193.61336023  .00002723  00000+0  10840-3 0  9992
2 59565  43.0014 285.0554 0001355 272.9658  87.1039 15.27596712 69789
STARLINK-31332          
1 59566U 24076C   25193.64533584  .00002830  00000+0  11230-3 0  9990
2 59566  43.0031 284.4149 0001604 270.1046  89.9621 15.27592541 69794
STARLINK-31689          
1 59567U 24076D   25193.93435554  .00000672  00000+0  33952-4 0  9999
2 59567  42.9990 279.6906 0001241 180.7360 179.3490 15.27575417 69876
STARLINK-31471          
1 59568U 24076E   25193.53641326  .00005847  00000+0  22194-3 0  9996
2 59568  43.0012 285.3237 0000774 188.4126 171.6713 15.27564906 69683
STARLINK-31470          
1 59569U 24076F   25193.92793449  .00000037  00000+0  10857-4 0  9994
2 59569  43.0006 279.6427 0001244 276.8440  83.2270 15.27578225 69784
STARLINK-31587          
1 59570U 24076G   25193.93646618 -.00002671  00000+0 -87626-4 0  9998
2 59570  43.0014 283.1625 0001015 275.4029  84.6707 15.27562110 69853
STARLINK-31606          
1 59571U 24076H   25193.91667824 -.00012532  00000+0 -44685-3 0  9993
2 59571  43.0018 282.7006 0001385 261.0214 230.7825 15.27563884  5891
STARLINK-31666          
1 59572U 24076J   25193.92199388  .00000874  00000+0  41304-4 0  9990
2 59572  43.0008 276.1083 0001363 276.0763  83.9933 15.27574308 69918
STARLINK-31683          
1 59573U 24076K   25193.65306728 -.00000655  00000+0 -14271-4 0  9991
2 59573  43.0027 284.4683 0001536 267.1916  92.8760 15.27568720 69795
STARLINK-31751          
1 59574U 24076L   25193.62106853  .00001723  00000+0  72107-4 0  9993
2 59574  43.0018 285.1066 0001878 287.1268  72.9378 15.27589726 69782
STARLINK-31510          
1 59575U 24076M   25193.93050168  .00001890  00000+0  78184-4 0  9991
2 59575  43.0003 279.6668 0001433 275.4587  84.6102 15.27588048 69875
STARLINK-31663          
1 59576U 24076N   25193.61721068  .00002688  00000+0  10713-3 0  9990
2 59576  43.0018 285.0626 0001118 268.6390  91.4334 15.27590463 69780
STARLINK-31692          
1 59577U 24076P   25193.93130844 -.00000379  00000+0 -42256-5 0  9998
2 59577  43.0005 283.0977 0001572 275.0133  85.0539 15.27585564 69833
STARLINK-31685          
1 59578U 24076Q   25193.63505855  .00001766  00000+0  73659-4 0  9993
2 59578  43.0028 284.3316 0001067 275.9745  84.0985 15.27589857 69795
STARLINK-31686          
1 59579U 24076R   25193.63891594  .00001491  00000+0  63695-4 0  9996
2 59579  43.0028 284.3635 0000991 249.4206 110.6540 15.27583572 69794
STARLINK-31668          
1 59580U 24076S   25193.56196086  .00001548  00000+0  65760-4 0  9992
2 59580  43.0019 284.6515 0001076 272.9095  87.1633 15.27586728 69784
STARLINK-31690          
1 59581U 24076T   25193.51842690  .00000638  00000+0  32689-4 0  9990
2 59581  43.0026 285.1814 0001182 266.1053  93.9663 15.27586350 69787
STARLINK-31701          
1 59582U 24076U   25193.66464042  .00055951  00000+0  20200-2 0  9990
2 59582  43.0039 284.5626 0001845 176.1111 183.9756 15.27699126 69708
STARLINK-31697          
1 59583U 24076V   25193.65690085  .00002403  00000+0  96793-4 0  9994
2 59583  43.0022 284.4999 0001416 267.0288  93.0402 15.27591415 69703
STARLINK-31662          
1 59584U 24076W   25193.93259894 -.00001133  00000+0 -31683-4 0  9993
2 59584  43.0016 283.1271 0001340 276.3888  83.6811 15.27565982 69834
STARLINK-31702          
1 59585U 24076X   25193.62235282  .00002776  00000+0  11034-3 0  9994
2 59585  43.0022 285.1028 0001229 268.3783  91.6928 15.27585496 69789
STARLINK-31704          
1 59586U 24076Y   25193.88680288  .00010376  00000+0  38584-3 0  9997
2 59586  42.9983 239.9783 0000943 278.3818  81.6927 15.27597489 70315
NEONSAT-1               
1 59587U 24077A   25193.89304669  .00006478  00000+0  22885-3 0  9991
2 59587  97.3789 274.0346 0012177 157.2440 202.9342 15.29482031 67725
ACS3                    
1 59588U 24077B   25193.72894223  .00007316  00000+0  70496-2 0  9996
2 59588  97.4503 182.6219 0075487  61.8663 299.0096 13.78905848 61011
GSAT0225 (GALILEO 29)   
1 59598U 24079A   25191.72023850 -.00000011  00000+0  00000+0 0  9994
2 59598  54.9063 110.6335 0001468 260.3706 278.4090  1.70474214  7497
GSAT0227 (GALILEO 30)   
1 59600U 24079C   25187.50621458 -.00000021  00000+0  00000+0 0  9998
2 59600  54.8998 110.7504 0001598  62.0129 297.9841  1.70474133  7474
STARLINK-31770          
1 59601U 24080A   25193.81483839  .00002020  00000+0  82864-4 0  9994
2 59601  43.0003 312.8787 0000924 263.2065  96.8681 15.27601601 69055
STARLINK-31778          
1 59602U 24080B   25193.81661754  .00004888  00000+0  18704-3 0  9994
2 59602  42.9986 309.4341 0001703 154.4369 205.6567 15.27577009 67882
STARLINK-31776          
1 59603U 24080C   25193.81306861  .00003868  00000+0  14992-3 0  9992
2 59603  43.0028 316.3197 0001645 271.6823  88.3841 15.27603372 67806
STARLINK-31765          
1 59604U 24080D   25193.78580975 -.00002303  00000+0 -74336-4 0  9993
2 59604  43.0024 309.2051 0001975 283.1558  76.9074 15.27510222 67882
STARLINK-31767          
1 59605U 24080E   25193.80713660  .00001842  00000+0  76401-4 0  9996
2 59605  42.9997 312.8233 0000743 258.3419 101.7350 15.27590189 67844
STARLINK-31782          
1 59606U 24080F   25193.82335828  .00005970  00000+0  22627-3 0  9991
2 59606  43.0007 316.3987 0001178 183.6995 176.3848 15.27584644 67801
